[{"OBJECT_NAME":"STARLINK-3750","OBJECT_ID":"2022-041BC","EPOCH":"2026-03-09T08:44:24.358848","MEAN_MOTION":15.08840762,"ECCENTRICITY":0.00015079,"INCLINATION":53.2173,"RA_OF_ASC_NODE":90.5831,"ARG_OF_PERICENTER":92.8927,"MEAN_ANOMALY":267.2238,"EPHEMERIS_TYPE":0,"CLASSIFICATION_TYPE":"U","NORAD_CAT_ID":52311,"ELEMENT_SET_NO":999,"REV_AT_EPOCH":21581,"BSTAR":0.00012041242,"MEAN_MOTION_DOT":1.629e-5,"MEAN_MOTION_DDOT":0},{"OBJECT_NAME":"CZ-6A DEB","OBJECT_ID":"2024-140GN","EPOCH":"2026-03-09T13:15:37.384128","MEAN_MOTION":14.8336719,"ECCENTRICITY":0.01353257,"INCLINATION":88.6725,"RA_OF_ASC_NODE":255.8629,"ARG_OF_PERICENTER":152.9061,"MEAN_ANOMALY":207.9314,"EPHEMERIS_TYPE":0,"CLASSIFICATION_TYPE":"U","NORAD_CAT_ID":60811,"ELEMENT_SET_NO":999,"REV_AT_EPOCH":8463,"BSTAR":0.00091817467,"MEAN_MOTION_DOT":8.879e-5,"MEAN_MOTION_DDOT":0}]
